[
    {
        "name":"M42",
        "alternate_names":"Orion Nebula, NGC 1976",
        "ra":"05h35m17.3s",
        "dec":"-05\u00b023\u203228\u2033",
        "type":"Nebula"
    },
    {
        "name":"M31",
        "alternate_names":"Andromeda Galaxy, NGC 224",
        "ra":"00h42m44.3s",
        "dec":"+41\u00b016\u203209\u2033",
        "type":"Galaxy"
    },
    {
        "name":"M45",
        "alternate_names":"Pleiades, Seven Sisters",
        "ra":"03h47m24.0s",
        "dec":"+24\u00b007\u203200\u2033",
        "type":"Open Cluster"
    },
    {
        "name":"NGC 7000",
        "alternate_names":"North America Nebula",
        "ra":"20h58m17.0s",
        "dec":"+44\u00b031\u203244\u2033",
        "type":"Nebula"
    },
    {
        "name":"M57",
        "alternate_names":"Ring Nebula, NGC 6720",
        "ra":"18h53m35.1s",
        "dec":"+33\u00b001\u203245\u2033",
        "type":"Planetary Nebula"
    },
    {
        "name":"M13",
        "alternate_names":"Hercules Globular Cluster, NGC 6205",
        "ra":"16h41m41.2s",
        "dec":"+36\u00b027\u203236\u2033",
        "type":"Globular Cluster"
    },
    {
        "name":"M8",
        "alternate_names":"Lagoon Nebula, NGC 6523",
        "ra":"18h03m37.0s",
        "dec":"-24\u00b023\u203212\u2033",
        "type":"Nebula"
    },
    {
        "name":"M20",
        "alternate_names":"Trifid Nebula, NGC 6514",
        "ra":"18h02m23.0s",
        "dec":"-23\u00b001\u203248\u2033",
        "type":"Nebula"
    },
    {
        "name":"IC 1396",
        "alternate_names":"Elephant's Trunk Nebula",
        "ra":"21h39m06.0s",
        "dec":"+57\u00b030\u203200\u2033",
        "type":"Nebula"
    },
    {
        "name":"M33",
        "alternate_names":"Triangulum Galaxy, NGC 598",
        "ra":"01h33m50.9s",
        "dec":"+30\u00b039\u203236\u2033",
        "type":"Galaxy"
    },
    {
        "name":"M51",
        "alternate_names":"Whirlpool Galaxy, NGC 5194",
        "ra":"13h29m52.7s",
        "dec":"+47\u00b011\u203243\u2033",
        "type":"Galaxy"
    },
    {
        "name":"M101",
        "alternate_names":"Pinwheel Galaxy, NGC 5457",
        "ra":"14h03m12.5s",
        "dec":"+54\u00b020\u203257\u2033",
        "type":"Galaxy"
    },
    {
        "name":"NGC 6960",
        "alternate_names":"Western Veil Nebula",
        "ra":"20h45m38.0s",
        "dec":"+30\u00b042\u203230\u2033",
        "type":"Supernova Remnant"
    },
    {
        "name":"NGC 2024",
        "alternate_names":"Flame Nebula",
        "ra":"05h41m54.0s",
        "dec":"-01\u00b051\u203200\u2033",
        "type":"Nebula"
    },
    {
        "name":"NGC 2237",
        "alternate_names":"Rosette Nebula",
        "ra":"06h33m45.0s",
        "dec":"+04\u00b059\u203254\u2033",
        "type":"Nebula"
    },
    {
        "name":"NGC 7293",
        "alternate_names":"Helix Nebula",
        "ra":"22h29m38.5s",
        "dec":"-20\u00b050\u203214\u2033",
        "type":"Planetary Nebula"
    }
]